[{"OBJECT_NAME":"STARLINK-4310","OBJECT_ID":"2022-077AH","EPOCH":"2026-03-09T23:24:38.242368","MEAN_MOTION":15.05639905,"ECCENTRICITY":0.00017732,"INCLINATION":97.6021,"RA_OF_ASC_NODE":251.4717,"ARG_OF_PERICENTER":113.1748,"MEAN_ANOMALY":246.9665,"EPHEMERIS_TYPE":0,"CLASSIFICATION_TYPE":"U","NORAD_CAT_ID":53074,"ELEMENT_SET_NO":999,"REV_AT_EPOCH":20102,"BSTAR":7.9434803e-5,"MEAN_MOTION_DOT":1.085e-5,"MEAN_MOTION_DDOT":0},{"OBJECT_NAME":"STARLING 1","OBJECT_ID":"2023-100C","EPOCH":"2026-03-09T22:50:11.977728","MEAN_MOTION":15.06170613,"ECCENTRICITY":0.00043741,"INCLINATION":99.5156,"RA_OF_ASC_NODE":64.1519,"ARG_OF_PERICENTER":233.3149,"MEAN_ANOMALY":126.7671,"EPHEMERIS_TYPE":0,"CLASSIFICATION_TYPE":"U","NORAD_CAT_ID":57388,"ELEMENT_SET_NO":999,"REV_AT_EPOCH":14496,"BSTAR":0.00020885616,"MEAN_MOTION_DOT":2.969e-5,"MEAN_MOTION_DDOT":0}]
